STARLINK-33674          
1 63329U 25057Y   26042.71147948  .00039059  00000+0  14199-2 0  9998
2 63329  43.0019 177.6261 0002651 284.4458  75.6099 15.27612900 51804
STARLINK-32840          
1 63363U 25063A   26042.58890695  .00040134  00000+0  13586-2 0  9997
2 63363  53.1580 170.8521 0001178 141.3942 218.7143 15.30231031 50785
STARLINK-32543          
1 63364U 25063B   26042.65316918  .00015516  00000+0  53484-3 0  9995
2 63364  53.1576 170.5407 0000997  90.3118 269.7997 15.30202971 50804
STARLINK-33741          
1 63365U 25063C   26042.67597165  .00035545  00000+0  12065-2 0  9996
2 63365  53.1596 173.5102 0001238  75.8438 284.2700 15.30200364 50778
STARLINK-33742          
1 63366U 25063D   26042.57794144  .00030855  00000+0  10488-2 0  9998
2 63366  53.1581 173.6067 0001783 135.3569 224.7576 15.30222373 50714
STARLINK-33734          
1 63367U 25063E   26042.66111304  .00002862  00000+0  10879-3 0  9992
2 63367  53.1586 183.3364 0000807  94.7448 265.3645 15.30169023 50583
STARLINK-33578          
1 63368U 25063F   26042.61952266  .00021629  00000+0  74169-3 0  9992
2 63368  53.1587 171.0283 0000906  66.4072 293.7023 15.30137797 50744
STARLINK-33626          
1 63369U 25063G   26042.56685917  .00037450  00000+0  12691-2 0  9993
2 63369  53.1578 171.4048 0001459 128.5463 231.5669 15.30228690 50745
STARLINK-33657          
1 63370U 25063H   26042.59799254  .00015023  00000+0  51826-3 0  9994
2 63370  53.1591 173.7316 0001189 100.8024 259.3110 15.30202838 50713
STARLINK-33648          
1 63371U 25063J   26042.60749123  .00033808  00000+0  11483-2 0  9992
2 63371  53.1603 173.7954 0001382  86.2497 273.8662 15.30202476 50768
STARLINK-33614          
1 63372U 25063K   26042.94397904  .00023233  00000+0  79406-3 0  9997
2 63372  53.1583 169.5132 0001744  35.7312 324.3805 15.30201580 50850
STARLINK-33617          
1 63373U 25063L   26042.87443504  .00028885  00000+0  98300-3 0  9990
2 63373  53.1583 169.7666 0000980  83.6766 276.4346 15.30218830 50797
STARLINK-33618          
1 63374U 25063M   26042.67532614  .00032619  00000+0  11081-2 0  9990
2 63374  53.1619 170.6594 0000702  84.8406 275.2675 15.30216873 50815
STARLINK-33621          
1 63375U 25063N   26042.67427524  .00039240  00000+0  13302-2 0  9999
2 63375  53.1595 170.6567 0001056  65.5969 294.5142 15.30195964 50766
STARLINK-33539          
1 63376U 25063P   26042.66849164  .00016669  00000+0  57357-3 0  9996
2 63376  53.1580 183.3818 0001145  85.2098 274.9034 15.30205047 50588
STARLINK-33634          
1 63377U 25063Q   26042.70540562  .00044590  00000+0  15083-2 0  9995
2 63377  53.1576 172.9773 0001197  67.1332 292.9795 15.30207651 50784
