[{"OBJECT_NAME":"STARLINK-33674","OBJECT_ID":"2025-057Y","EPOCH":"2026-02-11T17:04:31.827072","MEAN_MOTION":15.276129,"ECCENTRICITY":0.00026515,"INCLINATION":43.0019,"RA_OF_ASC_NODE":177.6261,"ARG_OF_PERICENTER":284.4458,"MEAN_ANOMALY":75.6099,"EPHEMERIS_TYPE":0,"CLASSIFICATION_TYPE":"U","NORAD_CAT_ID":63329,"ELEMENT_SET_NO":999,"REV_AT_EPOCH":5180,"BSTAR":0.001419898,"MEAN_MOTION_DOT":0.00039059,"MEAN_MOTION_DDOT":0},{"OBJECT_NAME":"STARLINK-32840","OBJECT_ID":"2025-063A","EPOCH":"2026-02-11T14:08:01.560480","MEAN_MOTION":15.30231031,"ECCENTRICITY":0.00011781,"INCLINATION":53.158,"RA_OF_ASC_NODE":170.8521,"ARG_OF_PERICENTER":141.3942,"MEAN_ANOMALY":218.7143,"EPHEMERIS_TYPE":0,"CLASSIFICATION_TYPE":"U","NORAD_CAT_ID":63363,"ELEMENT_SET_NO":999,"REV_AT_EPOCH":5078,"BSTAR":0.0013585678,"MEAN_MOTION_DOT":0.00040134,"MEAN_MOTION_DDOT":0},{"OBJECT_NAME":"STARLINK-32543","OBJECT_ID":"2025-063B","EPOCH":"2026-02-11T15:40:33.817152","MEAN_MOTION":15.30202971,"ECCENTRICITY":9.972e-5,"INCLINATION":53.1576,"RA_OF_ASC_NODE":170.5407,"ARG_OF_PERICENTER":90.3118,"MEAN_ANOMALY":269.7997,"EPHEMERIS_TYPE":0,"CLASSIFICATION_TYPE":"U","NORAD_CAT_ID":63364,"ELEMENT_SET_NO":999,"REV_AT_EPOCH":5080,"BSTAR":0.00053484002,"MEAN_MOTION_DOT":0.00015516,"MEAN_MOTION_DDOT":0},{"OBJECT_NAME":"STARLINK-33741","OBJECT_ID":"2025-063C","EPOCH":"2026-02-11T16:13:23.950560","MEAN_MOTION":15.30200364,"ECCENTRICITY":0.0001238,"INCLINATION":53.1596,"RA_OF_ASC_NODE":173.5102,"ARG_OF_PERICENTER":75.8438,"MEAN_ANOMALY":284.27,"EPHEMERIS_TYPE":0,"CLASSIFICATION_TYPE":"U","NORAD_CAT_ID":63365,"ELEMENT_SET_NO":999,"REV_AT_EPOCH":5077,"BSTAR":0.0012064982,"MEAN_MOTION_DOT":0.00035545,"MEAN_MOTION_DDOT":0},{"OBJECT_NAME":"STARLINK-33742","OBJECT_ID":"2025-063D","EPOCH":"2026-02-11T13:52:14.140416","MEAN_MOTION":15.30222373,"ECCENTRICITY":0.00017834,"INCLINATION":53.1581,"RA_OF_ASC_NODE":173.6067,"ARG_OF_PERICENTER":135.3569,"MEAN_ANOMALY":224.7576,"EPHEMERIS_TYPE":0,"CLASSIFICATION_TYPE":"U","NORAD_CAT_ID":63366,"ELEMENT_SET_NO":999,"REV_AT_EPOCH":5071,"BSTAR":0.0010488436,"MEAN_MOTION_DOT":0.00030855,"MEAN_MOTION_DDOT":0},{"OBJECT_NAME":"STARLINK-33734","OBJECT_ID":"2025-063E","EPOCH":"2026-02-11T15:52:00.166656","MEAN_MOTION":15.30169023,"ECCENTRICITY":8.074e-5,"INCLINATION":53.1586,"RA_OF_ASC_NODE":183.3364,"ARG_OF_PERICENTER":94.7448,"MEAN_ANOMALY":265.3645,"EPHEMERIS_TYPE":0,"CLASSIFICATION_TYPE":"U","NORAD_CAT_ID":63367,"ELEMENT_SET_NO":999,"REV_AT_EPOCH":5058,"BSTAR":0.00010879432,"MEAN_MOTION_DOT":2.862e-5,"MEAN_MOTION_DDOT":0},{"OBJECT_NAME":"STARLINK-33578","OBJECT_ID":"2025-063F","EPOCH":"2026-02-11T14:52:06.757824","MEAN_MOTION":15.30137797,"ECCENTRICITY":9.063e-5,"INCLINATION":53.1587,"RA_OF_ASC_NODE":171.0283,"ARG_OF_PERICENTER":66.4072,"MEAN_ANOMALY":293.7023,"EPHEMERIS_TYPE":0,"CLASSIFICATION_TYPE":"U","NORAD_CAT_ID":63368,"ELEMENT_SET_NO":999,"REV_AT_EPOCH":5074,"BSTAR":0.00074169131,"MEAN_MOTION_DOT":0.00021629,"MEAN_MOTION_DDOT":0},{"OBJECT_NAME":"STARLINK-33626","OBJECT_ID":"2025-063G","EPOCH":"2026-02-11T13:36:16.632288","MEAN_MOTION":15.3022869,"ECCENTRICITY":0.00014599,"INCLINATION":53.1578,"RA_OF_ASC_NODE":171.4048,"ARG_OF_PERICENTER":128.5463,"MEAN_ANOMALY":231.5669,"EPHEMERIS_TYPE":0,"CLASSIFICATION_TYPE":"U","NORAD_CAT_ID":63369,"ELEMENT_SET_NO":999,"REV_AT_EPOCH":5074,"BSTAR":0.0012690549,"MEAN_MOTION_DOT":0.0003745,"MEAN_MOTION_DDOT":0},{"OBJECT_NAME":"STARLINK-33657","OBJECT_ID":"2025-063H","EPOCH":"2026-02-11T14:21:06.555456","MEAN_MOTION":15.30202838,"ECCENTRICITY":0.00011896,"INCLINATION":53.1591,"RA_OF_ASC_NODE":173.7316,"ARG_OF_PERICENTER":100.8024,"MEAN_ANOMALY":259.311,"EPHEMERIS_TYPE":0,"CLASSIFICATION_TYPE":"U","NORAD_CAT_ID":63370,"ELEMENT_SET_NO":999,"REV_AT_EPOCH":5071,"BSTAR":0.00051826333,"MEAN_MOTION_DOT":0.00015023,"MEAN_MOTION_DDOT":0},{"OBJECT_NAME":"STARLINK-33648","OBJECT_ID":"2025-063J","EPOCH":"2026-02-11T14:34:47.242272","MEAN_MOTION":15.30202476,"ECCENTRICITY":0.00013826,"INCLINATION":53.1603,"RA_OF_ASC_NODE":173.7954,"ARG_OF_PERICENTER":86.2497,"MEAN_ANOMALY":273.8662,"EPHEMERIS_TYPE":0,"CLASSIFICATION_TYPE":"U","NORAD_CAT_ID":63371,"ELEMENT_SET_NO":999,"REV_AT_EPOCH":5076,"BSTAR":0.0011483185,"MEAN_MOTION_DOT":0.00033808,"MEAN_MOTION_DDOT":0},{"OBJECT_NAME":"STARLINK-33614","OBJECT_ID":"2025-063K","EPOCH":"2026-02-11T22:39:19.789056","MEAN_MOTION":15.3020158,"ECCENTRICITY":0.0001744,"INCLINATION":53.1583,"RA_OF_ASC_NODE":169.5132,"ARG_OF_PERICENTER":35.7312,"MEAN_ANOMALY":324.3805,"EPHEMERIS_TYPE":0,"CLASSIFICATION_TYPE":"U","NORAD_CAT_ID":63372,"ELEMENT_SET_NO":999,"REV_AT_EPOCH":5085,"BSTAR":0.00079406,"MEAN_MOTION_DOT":0.00023233,"MEAN_MOTION_DDOT":0},{"OBJECT_NAME":"STARLINK-33617","OBJECT_ID":"2025-063L","EPOCH":"2026-02-11T20:59:11.187456","MEAN_MOTION":15.3021883,"ECCENTRICITY":9.8e-5,"INCLINATION":53.1583,"RA_OF_ASC_NODE":169.7666,"ARG_OF_PERICENTER":83.6766,"MEAN_ANOMALY":276.4346,"EPHEMERIS_TYPE":0,"CLASSIFICATION_TYPE":"U","NORAD_CAT_ID":63373,"ELEMENT_SET_NO":999,"REV_AT_EPOCH":5079,"BSTAR":0.000983,"MEAN_MOTION_DOT":0.00028885,"MEAN_MOTION_DDOT":0},{"OBJECT_NAME":"STARLINK-33618","OBJECT_ID":"2025-063M","EPOCH":"2026-02-11T16:12:28.178496","MEAN_MOTION":15.30216873,"ECCENTRICITY":7.024e-5,"INCLINATION":53.1619,"RA_OF_ASC_NODE":170.6594,"ARG_OF_PERICENTER":84.8406,"MEAN_ANOMALY":275.2675,"EPHEMERIS_TYPE":0,"CLASSIFICATION_TYPE":"U","NORAD_CAT_ID":63374,"ELEMENT_SET_NO":999,"REV_AT_EPOCH":5081,"BSTAR":0.0011080509,"MEAN_MOTION_DOT":0.00032619,"MEAN_MOTION_DDOT":0},{"OBJECT_NAME":"STARLINK-33621","OBJECT_ID":"2025-063N","EPOCH":"2026-02-11T16:10:57.380736","MEAN_MOTION":15.30195964,"ECCENTRICITY":0.0001056,"INCLINATION":53.1595,"RA_OF_ASC_NODE":170.6567,"ARG_OF_PERICENTER":65.5969,"MEAN_ANOMALY":294.5142,"EPHEMERIS_TYPE":0,"CLASSIFICATION_TYPE":"U","NORAD_CAT_ID":63375,"ELEMENT_SET_NO":999,"REV_AT_EPOCH":5076,"BSTAR":0.0013301884,"MEAN_MOTION_DOT":0.0003924,"MEAN_MOTION_DDOT":0},{"OBJECT_NAME":"STARLINK-33539","OBJECT_ID":"2025-063P","EPOCH":"2026-02-11T16:02:37.677696","MEAN_MOTION":15.30205047,"ECCENTRICITY":0.00011456,"INCLINATION":53.158,"RA_OF_ASC_NODE":183.3818,"ARG_OF_PERICENTER":85.2098,"MEAN_ANOMALY":274.9034,"EPHEMERIS_TYPE":0,"CLASSIFICATION_TYPE":"U","NORAD_CAT_ID":63376,"ELEMENT_SET_NO":999,"REV_AT_EPOCH":5058,"BSTAR":0.00057356872,"MEAN_MOTION_DOT":0.00016669,"MEAN_MOTION_DDOT":0},{"OBJECT_NAME":"STARLINK-33634","OBJECT_ID":"2025-063Q","EPOCH":"2026-02-11T16:55:47.045568","MEAN_MOTION":15.30207651,"ECCENTRICITY":0.00011971,"INCLINATION":53.1576,"RA_OF_ASC_NODE":172.9773,"ARG_OF_PERICENTER":67.1332,"MEAN_ANOMALY":292.9795,"EPHEMERIS_TYPE":0,"CLASSIFICATION_TYPE":"U","NORAD_CAT_ID":63377,"ELEMENT_SET_NO":999,"REV_AT_EPOCH":5078,"BSTAR":0.0015082654,"MEAN_MOTION_DOT":0.0004459,"MEAN_MOTION_DDOT":0}]
